[{"OBJECT_NAME":"STARLINK-32098","OBJECT_ID":"2024-086Y","EPOCH":"2026-03-08T23:53:53.965536","MEAN_MOTION":15.27571772,"ECCENTRICITY":0.00014023,"INCLINATION":43.0009,"RA_OF_ASC_NODE":64.0121,"ARG_OF_PERICENTER":255.1283,"MEAN_ANOMALY":104.9413,"EPHEMERIS_TYPE":0,"CLASSIFICATION_TYPE":"U","NORAD_CAT_ID":59704,"ELEMENT_SET_NO":999,"REV_AT_EPOCH":10400,"BSTAR":-9.76559e-6,"MEAN_MOTION_DOT":-5.31e-6,"MEAN_MOTION_DDOT":0},{"OBJECT_NAME":"CZ-1 DEB","OBJECT_ID":"1970-034D","EPOCH":"2026-03-09T20:10:39.614592","MEAN_MOTION":13.9655912,"ECCENTRICITY":0.06611872,"INCLINATION":68.3694,"RA_OF_ASC_NODE":240.5133,"ARG_OF_PERICENTER":139.7447,"MEAN_ANOMALY":225.4605,"EPHEMERIS_TYPE":0,"CLASSIFICATION_TYPE":"U","NORAD_CAT_ID":25882,"ELEMENT_SET_NO":999,"REV_AT_EPOCH":30910,"BSTAR":0.0010001113,"MEAN_MOTION_DOT":9.706e-5,"MEAN_MOTION_DDOT":0}]
